start=new Date('2023-04-07T00:00:00.000Z').valueOf();
sats=[{"REV_AT_EPOCH":"5953","TIME_SYSTEM":"UTC","OBJECT_ID":"2022-029BD","GP_ID":"229611199","ELEMENT_SET_NO":"999","OBJECT_TYPE":"PAYLOAD","PERIAPSIS":"538.936","BSTAR":"0.00018508000000","CLASSIFICATION_TYPE":"U","NORAD_CAT_ID":"52139","ARG_OF_PERICENTER":"100.9851","MEAN_MOTION_DOT":"0.00002659","SEMIMAJOR_AXIS":"6917.865","APOAPSIS":"540.524","INCLINATION":"53.2148","OBJECT_NAME":"STARLINK-3730","SITE":"AFETR","RA_OF_ASC_NODE":"194.3207","COUNTRY_CODE":"US","TLE_LINE1":"1 52139U 22029BD  23096.51993292  .00002659  00000-0  18508-3 0  9992","MEAN_MOTION":"15.08844962","FILE":"3881771","REF_FRAME":"TEME","MEAN_ANOMALY":"259.1270","MEAN_ELEMENT_THEORY":"SGP4","CENTER_NAME":"EARTH","PERIOD":"95.437","DECAY_DATE":null,"RCS_SIZE":"LARGE","ECCENTRICITY":"0.00011480","TLE_LINE2":"2 52139  53.2148 194.3207 0001148 100.9851 259.1270 15.08844962 59534","MEAN_MOTION_DDOT":"0.0000000000000","EPHEMERIS_TYPE":"0","LAUNCH_DATE":"2022-03-19","EPOCH":"2023-04-06T12:28:42.204288"},{"TIME_SYSTEM":"UTC","OBJECT_ID":"2022-029BE","REV_AT_EPOCH":"5974","PERIAPSIS":"538.830","OBJECT_TYPE":"PAYLOAD","GP_ID":"229644782","ELEMENT_SET_NO":"999","ARG_OF_PERICENTER":"109.2892","NORAD_CAT_ID":"52140","CLASSIFICATION_TYPE":"U","BSTAR":"-0.00000113820000","RA_OF_ASC_NODE":"182.5010","COUNTRY_CODE":"US","OBJECT_NAME":"STARLINK-3682","SITE":"AFETR","APOAPSIS":"540.690","INCLINATION":"53.2160","MEAN_MOTION_DOT":"-0.00000306","SEMIMAJOR_AXIS":"6917.895","FILE":"3882049","MEAN_MOTION":"15.08835169","TLE_LINE1":"1 52140U 22029BE  23096.92565532 -.00000306  00000-0 -11382-5 0  9995","PERIOD":"95.438","DECAY_DATE":null,"MEAN_ELEMENT_THEORY":"SGP4","MEAN_ANOMALY":"250.8245","CENTER_NAME":"EARTH","REF_FRAME":"TEME","EPHEMERIS_TYPE":"0","MEAN_MOTION_DDOT":"0.0000000000000","ECCENTRICITY":"0.00013440","TLE_LINE2":"2 52140  53.2160 182.5010 0001344 109.2892 250.8245 15.08835169 59748","RCS_SIZE":"LARGE","EPOCH":"2023-04-06T22:12:56.619648","LAUNCH_DATE":"2022-03-19"},{"CENTER_NAME":"EARTH","MEAN_ANOMALY":"264.1135","MEAN_ELEMENT_THEORY":"SGP4","REF_FRAME":"TEME","DECAY_DATE":null,"PERIOD":"95.437","TLE_LINE1":"1 52261U 22041A   23096.52548778 -.00002939  00000-0 -16660-3 0  9998","FILE":"3881771","MEAN_MOTION":"15.08843080","LAUNCH_DATE":"2022-04-21","EPOCH":"2023-04-06T12:36:42.144192","RCS_SIZE":"LARGE","MEAN_MOTION_DDOT":"0.0000000000000","EPHEMERIS_TYPE":"0","ECCENTRICITY":"0.00016230","TLE_LINE2":"2 52261  53.2160 224.3052 0001623  96.0042 264.1135 15.08843080 53104","OBJECT_TYPE":"PAYLOAD","ELEMENT_SET_NO":"999","GP_ID":"229611456","PERIAPSIS":"538.613","REV_AT_EPOCH":"5310","OBJECT_ID":"2022-041A","TIME_SYSTEM":"UTC","INCLINATION":"53.2160","APOAPSIS":"540.859","SEMIMAJOR_AXIS":"6917.871","MEAN_MOTION_DOT":"-0.00002939","RA_OF_ASC_NODE":"224.3052","COUNTRY_CODE":"US","SITE":"AFETR","OBJECT_NAME":"STARLINK-3810","CLASSIFICATION_TYPE":"U","NORAD_CAT_ID":"52261","BSTAR":"-0.00016660000000","ARG_OF_PERICENTER":"96.0042"},{"MEAN_MOTION":"15.08847014","FILE":"3882049","TLE_LINE1":"1 52262U 22041B   23096.78949375  .00005734  00000-0  37796-3 0  9992","PERIOD":"95.437","DECAY_DATE":null,"REF_FRAME":"TEME","MEAN_ELEMENT_THEORY":"SGP4","MEAN_ANOMALY":"264.1155","CENTER_NAME":"EARTH","TLE_LINE2":"2 52262  53.2162 223.0603 0001153  95.9968 264.1155 15.08847014 53145","ECCENTRICITY":"0.00011530","MEAN_MOTION_DDOT":"0.0000000000000","EPHEMERIS_TYPE":"0","RCS_SIZE":"LARGE","EPOCH":"2023-04-06T18:56:52.260000","LAUNCH_DATE":"2022-04-21","OBJECT_ID":"2022-041B","TIME_SYSTEM":"UTC","REV_AT_EPOCH":"5314","PERIAPSIS":"538.926","GP_ID":"229644052","ELEMENT_SET_NO":"999","OBJECT_TYPE":"PAYLOAD","ARG_OF_PERICENTER":"95.9968","BSTAR":"0.00037796000000","CLASSIFICATION_TYPE":"U","NORAD_CAT_ID":"52262","SITE":"AFETR","OBJECT_NAME":"STARLINK-3761","COUNTRY_CODE":"US","RA_OF_ASC_NODE":"223.0603","MEAN_MOTION_DOT":"0.00005734","SEMIMAJOR_AXIS":"6917.859","APOAPSIS":"540.522","INCLINATION":"53.2162"},{"EPHEMERIS_TYPE":"0","MEAN_MOTION_DDOT":"0.0000000000000","ECCENTRICITY":"0.00014110","TLE_LINE2":"2 52263  53.2143 223.0936 0001411 103.2186 256.8964 15.08847724 53140","RCS_SIZE":"LARGE","EPOCH":"2023-04-06T19:02:09.786912","LAUNCH_DATE":"2022-04-21","FILE":"3882049","MEAN_MOTION":"15.08847724","TLE_LINE1":"1 52263U 22041C   23096.79316883  .00004213  00000-0  28259-3 0  9991","DECAY_DATE":null,"PERIOD":"95.437","MEAN_ANOMALY":"256.8964","MEAN_ELEMENT_THEORY":"SGP4","CENTER_NAME":"EARTH","REF_FRAME":"TEME","ARG_OF_PERICENTER":"103.2186","CLASSIFICATION_TYPE":"U","NORAD_CAT_ID":"52263","BSTAR":"0.00028259000000","RA_OF_ASC_NODE":"223.0936","COUNTRY_CODE":"US","OBJECT_NAME":"STARLINK-3786","SITE":"AFETR","INCLINATION":"53.2143","APOAPSIS":"540.698","SEMIMAJOR_AXIS":"6917.857","MEAN_MOTION_DOT":"0.00004213","TIME_SYSTEM":"UTC","OBJECT_ID":"2022-041C","REV_AT_EPOCH":"5314","PERIAPSIS":"538.746","OBJECT_TYPE":"PAYLOAD","ELEMENT_SET_NO":"999","GP_ID":"229644302"},{"REV_AT_EPOCH":"5310","OBJECT_ID":"2022-041D","TIME_SYSTEM":"UTC","ELEMENT_SET_NO":"999","GP_ID":"229610707","OBJECT_TYPE":"PAYLOAD","PERIAPSIS":"538.770","BSTAR":"0.00011038000000","CLASSIFICATION_TYPE":"U","NORAD_CAT_ID":"52264","ARG_OF_PERICENTER":"85.7843","SEMIMAJOR_AXIS":"6917.876","MEAN_MOTION_DOT":"0.00001469","INCLINATION":"53.2160","APOAPSIS":"540.712","OBJECT_NAME":"STARLINK-3795","SITE":"AFETR","COUNTRY_CODE":"US","RA_OF_ASC_NODE":"224.3169","TLE_LINE1":"1 52264U 22041D   23096.52085402  .00001469  00000-0  11038-3 0  9990","MEAN_MOTION":"15.08841444","FILE":"3881771","REF_FRAME":"TEME","MEAN_ANOMALY":"274.3309","CENTER_NAME":"EARTH","MEAN_ELEMENT_THEORY":"SGP4","DECAY_DATE":null,"PERIOD":"95.437","RCS_SIZE":"LARGE","ECCENTRICITY":"0.00014040","TLE_LINE2":"2 52264  53.2160 224.3169 0001404  85.7843 274.3309 15.08841444 53105","MEAN_MOTION_DDOT":"0.0000000000000","EPHEMERIS_TYPE":"0","LAUNCH_DATE":"2022-04-21","EPOCH":"2023-04-06T12:30:01.787328"},{"RCS_SIZE":"LARGE","ECCENTRICITY":"0.00013780","TLE_LINE2":"2 52265  53.2172 224.3336 0001378  83.1935 276.9214 15.08840065 53100","EPHEMERIS_TYPE":"0","MEAN_MOTION_DDOT":"0.0000000000000","LAUNCH_DATE":"2022-04-21","EPOCH":"2023-04-06T12:24:43.856064","TLE_LINE1":"1 52265U 22041E   23096.51717426  .00001049  00000-0  84002-4 0  9994","MEAN_MOTION":"15.08840065","FILE":"3881771","REF_FRAME":"TEME","MEAN_ANOMALY":"276.9214","MEAN_ELEMENT_THEORY":"SGP4","CENTER_NAME":"EARTH","PERIOD":"95.438","DECAY_DATE":null,"BSTAR":"0.00008400200000","NORAD_CAT_ID":"52265","CLASSIFICATION_TYPE":"U","ARG_OF_PERICENTER":"83.1935","MEAN_MOTION_DOT":"0.00001049","SEMIMAJOR_AXIS":"6917.880","APOAPSIS":"540.698","INCLINATION":"53.2172","SITE":"AFETR","OBJECT_NAME":"STARLINK-3740","COUNTRY_CODE":"US","RA_OF_ASC_NODE":"224.3336","REV_AT_EPOCH":"5310","OBJECT_ID":"2022-041E","TIME_SYSTEM":"UTC","GP_ID":"229610957","ELEMENT_SET_NO":"999","OBJECT_TYPE":"PAYLOAD","PERIAPSIS":"538.792"},{"REV_AT_EPOCH":"5310","OBJECT_ID":"2022-041F","TIME_SYSTEM":"UTC","OBJECT_TYPE":"PAYLOAD","ELEMENT_SET_NO":"999","GP_ID":"229611708","PERIAPSIS":"538.869","CLASSIFICATION_TYPE":"U","NORAD_CAT_ID":"52266","BSTAR":"0.00006354700000","ARG_OF_PERICENTER":"98.5955","INCLINATION":"53.2158","APOAPSIS":"540.614","SEMIMAJOR_AXIS":"6917.876","MEAN_MOTION_DOT":"0.00000724","RA_OF_ASC_NODE":"224.3495","COUNTRY_CODE":"US","SITE":"AFETR","OBJECT_NAME":"STARLINK-3739","TLE_LINE1":"1 52266U 22041F   23096.51349109  .00000724  00000-0  63547-4 0  9994","FILE":"3881771","MEAN_MOTION":"15.08841341","MEAN_ELEMENT_THEORY":"SGP4","MEAN_ANOMALY":"261.5180","CENTER_NAME":"EARTH","REF_FRAME":"TEME","DECAY_DATE":null,"PERIOD":"95.437","RCS_SIZE":"LARGE","MEAN_MOTION_DDOT":"0.0000000000000","EPHEMERIS_TYPE":"0","ECCENTRICITY":"0.00012610","TLE_LINE2":"2 52266  53.2158 224.3495 0001261  98.5955 261.5180 15.08841341 53104","LAUNCH_DATE":"2022-04-21","EPOCH":"2023-04-06T12:19:25.630176"},{"LAUNCH_DATE":"2022-04-21","EPOCH":"2023-04-06T20:11:03.207840","RCS_SIZE":"LARGE","MEAN_MOTION_DDOT":"0.0000000000000","EPHEMERIS_TYPE":"0","ECCENTRICITY":"0.00013970","TLE_LINE2":"2 52267  53.2147 222.8753 0001397 110.9377 249.1764 15.08858826 53151","CENTER_NAME":"EARTH","MEAN_ANOMALY":"249.1764","MEAN_ELEMENT_THEORY":"SGP4","REF_FRAME":"TEME","PERIOD":"95.436","DECAY_DATE":null,"TLE_LINE1":"1 52267U 22041G   23096.84100935  .00023381  00000-0  14815-2 0  9999","FILE":"3882049","MEAN_MOTION":"15.08858826","APOAPSIS":"540.654","INCLINATION":"53.2147","MEAN_MOTION_DOT":"0.00023381","SEMIMAJOR_AXIS":"6917.823","COUNTRY_CODE":"US","RA_OF_ASC_NODE":"222.8753","SITE":"AFETR","OBJECT_NAME":"STARLINK-3748","CLASSIFICATION_TYPE":"U","NORAD_CAT_ID":"52267","BSTAR":"0.00148150000000","ARG_OF_PERICENTER":"110.9377","OBJECT_TYPE":"PAYLOAD","GP_ID":"229643814","ELEMENT_SET_NO":"999","PERIAPSIS":"538.721","REV_AT_EPOCH":"5315","OBJECT_ID":"2022-041G","TIME_SYSTEM":"UTC"},{"EPOCH":"2023-04-06T11:59:36.763584","LAUNCH_DATE":"2022-04-21","ECCENTRICITY":"0.00015820","TLE_LINE2":"2 52268  53.2155 224.4168 0001582 110.1329 249.9834 15.08843311 53108","MEAN_MOTION_DDOT":"0.0000000000000","EPHEMERIS_TYPE":"0","RCS_SIZE":"LARGE","PERIOD":"95.437","DECAY_DATE":null,"REF_FRAME":"TEME","MEAN_ANOMALY":"249.9834","MEAN_ELEMENT_THEORY":"SGP4","CENTER_NAME":"EARTH","MEAN_MOTION":"15.08843311","FILE":"3881771","TLE_LINE1":"1 52268U 22041H   23096.49973106  .00004125  00000-0  27707-3 0  9999","SITE":"AFETR","OBJECT_NAME":"STARLINK-3746","COUNTRY_CODE":"US","RA_OF_ASC_NODE":"224.4168","MEAN_MOTION_DOT":"0.00004125","SEMIMAJOR_AXIS":"6917.870","APOAPSIS":"540.830","INCLINATION":"53.2155","ARG_OF_PERICENTER":"110.1329","BSTAR":"0.00027707000000","CLASSIFICATION_TYPE":"U","NORAD_CAT_ID":"52268","PERIAPSIS":"538.641","GP_ID":"229611207","ELEMENT_SET_NO":"999","OBJECT_TYPE":"PAYLOAD","TIME_SYSTEM":"UTC","OBJECT_ID":"2022-041H","REV_AT_EPOCH":"5310"}];
